[Satellite]
VERSION=1.1
NAME=AEROCUBE 4.5B
NICKNAME=AEROCUBE 4.5B
TLE1=1 38768U 12048L   20158.19116779  .00000512  00000-0  52986-4 0  9996
TLE2=2 38768  64.6670 240.2790 0130985 136.3137 224.8435 14.95956933 40193
STATUS=0
